[{"OBJECT_NAME":"STARLINK-5337","OBJECT_ID":"2023-010R","EPOCH":"2026-03-09T23:31:30.169056","MEAN_MOTION":14.98429662,"ECCENTRICITY":0.00030856,"INCLINATION":70.0002,"RA_OF_ASC_NODE":43.5513,"ARG_OF_PERICENTER":267.612,"MEAN_ANOMALY":92.4686,"EPHEMERIS_TYPE":0,"CLASSIFICATION_TYPE":"U","NORAD_CAT_ID":55284,"ELEMENT_SET_NO":999,"REV_AT_EPOCH":17281,"BSTAR":0.0039719726,"MEAN_MOTION_DOT":0.00047747,"MEAN_MOTION_DDOT":0},{"OBJECT_NAME":"ICEYE-X57","OBJECT_ID":"2025-135BC","EPOCH":"2026-03-09T22:18:00.647424","MEAN_MOTION":15.00870088,"ECCENTRICITY":0.00021914,"INCLINATION":97.7623,"RA_OF_ASC_NODE":185.2979,"ARG_OF_PERICENTER":76.2741,"MEAN_ANOMALY":283.8727,"EPHEMERIS_TYPE":0,"CLASSIFICATION_TYPE":"U","NORAD_CAT_ID":64578,"ELEMENT_SET_NO":999,"REV_AT_EPOCH":3913,"BSTAR":0.00060837081,"MEAN_MOTION_DOT":7.683e-5,"MEAN_MOTION_DDOT":0}]
